[{"OBJECT_NAME":"STARLINK-32556","OBJECT_ID":"2024-202P","EPOCH":"2026-03-09T11:05:13.809696","MEAN_MOTION":15.27573886,"ECCENTRICITY":0.000132,"INCLINATION":43.0009,"RA_OF_ASC_NODE":239.2027,"ARG_OF_PERICENTER":255.5118,"MEAN_ANOMALY":104.5587,"EPHEMERIS_TYPE":0,"CLASSIFICATION_TYPE":"U","NORAD_CAT_ID":61858,"ELEMENT_SET_NO":999,"REV_AT_EPOCH":7530,"BSTAR":-1.6253294e-5,"MEAN_MOTION_DOT":-7.09e-6,"MEAN_MOTION_DDOT":0},{"OBJECT_NAME":"SL-3 R\/B","OBJECT_ID":"1982-027B","EPOCH":"2026-03-09T22:44:40.208640","MEAN_MOTION":15.28335844,"ECCENTRICITY":0.00065199,"INCLINATION":81.188,"RA_OF_ASC_NODE":37.4466,"ARG_OF_PERICENTER":276.581,"MEAN_ANOMALY":83.4683,"EPHEMERIS_TYPE":0,"CLASSIFICATION_TYPE":"U","NORAD_CAT_ID":13121,"ELEMENT_SET_NO":999,"REV_AT_EPOCH":39859,"BSTAR":0.00030526741,"MEAN_MOTION_DOT":8.453e-5,"MEAN_MOTION_DDOT":0}]
